{"type": "FeatureCollection", "features": [ {"type": "Feature", "properties": {"norad_id": 39634, "name": "SENTINEL-1A", "group": "resource", "lat": 78.20693427003332, "lon": -131.09915274373876, "alt_km": 687.5895055667124, "timestamp": "2025-12-26T07:29:18.116733+00:00", "meta": {"OBJECT_NAME": "SENTINEL-1A", "OBJECT_ID": "2014-016A", "EPOCH": "2025-12-25T22:48:36.452160", "MEAN_MOTION": 14.59199107, "ECCENTRICITY": 0.00012405, "INCLINATION": 98.1803, "RA_OF_ASC_NODE": 4.996, "ARG_OF_PERICENTER": 86.5424, "MEAN_ANOMALY": 273.5917, "EPHEMERIS_TYPE": 0, "CLASSIFICATION_TYPE": "U", "NORAD_CAT_ID": 39634, "ELEMENT_SET_NO": 999, "REV_AT_EPOCH": 62475, "BSTAR": -2.0805929e-05, "MEAN_MOTION_DOT": -1.44e-06, "MEAN_MOTION_DDOT": 0}, "tle": {"line1": "1 39634U 14016A   25359.95042190 -.00000144  00000+0 -20806-4 0  9991", "line2": "2 39634  98.1803   4.9960 0001240  86.5424 273.5917 14.59199107624754"}}, "geometry": {"type": "Point", "coordinates": [-131.09915274373876, 78.20693427003332]}}, {"type": "Feature", "properties": {"norad_id": 39731, "name": "KAZEOSAT 1", "group": "resource", "lat": -42.3737360426707, "lon": 79.60575840189509, "alt_km": 758.9349474027058, "timestamp": "2025-12-26T07:29:18.116743+00:00", "meta": {"OBJECT_NAME": "KAZEOSAT 1", "OBJECT_ID": "2014-024A", "EPOCH": "2025-12-25T23:21:39.237984", "MEAN_MOTION": 14.42069303, "ECCENTRICITY": 0.00012289, "INCLINATION": 98.3414, "RA_OF_ASC_NODE": 71.5828, "ARG_OF_PERICENTER": 97.706, "MEAN_ANOMALY": 262.4269, "EPHEMERIS_TYPE": 0, "CLASSIFICATION_TYPE": "U", "NORAD_CAT_ID": 39731, "ELEMENT_SET_NO": 999, "REV_AT_EPOCH": 61359, "BSTAR": 4.5204162e-05, "MEAN_MOTION_DOT": 1.06e-06, "MEAN_MOTION_DDOT": 0}, "tle": {"line1": "1 39731U 14024A   25359.97337081  .00000106  00000+0  45204-4 0  9991", "line2": "2 39731  98.3414  71.5828 0001228  97.7060 262.4269 14.42069303613594"}}, "geometry": {"type": "Point", "coordinates": [79.60575840189509, -42.3737360426707]}}, {"type": "Feature", "properties": {"norad_id": 39766, "name": "ALOS-2", "group": "resource", "lat": -45.32298590251721, "lon": -93.13106600345384, "alt_km": 638.3871355528272, "timestamp": "2025-12-26T07:29:18.116753+00:00", "meta": {"OBJECT_NAME": "ALOS-2", "OBJECT_ID": "2014-029A", "EPOCH": "2025-12-25T22:21:18.010080", "MEAN_MOTION": 14.79467964, "ECCENTRICITY": 0.0001397, "INCLINATION": 97.9219, "RA_OF_ASC_NODE": 94.5894, "ARG_OF_PERICENTER": 97.1377, "MEAN_ANOMALY": 262.9993, "EPHEMERIS_TYPE": 0, "CLASSIFICATION_TYPE": "U", "NORAD_CAT_ID": 39766, "ELEMENT_SET_NO": 999, "REV_AT_EPOCH": 62596, "BSTAR": 4.6249964e-05, "MEAN_MOTION_DOT": 2.94e-06, "MEAN_MOTION_DDOT": 0}, "tle": {"line1": "1 39766U 14029A   25359.93145845  .00000294  00000+0  46250-4 0  9995", "line2": "2 39766  97.9219  94.5894 0001397  97.1377 262.9993 14.79467964625968"}}, "geometry": {"type": "Point", "coordinates": [-93.13106600345384, -45.32298590251721]}}, {"type": "Feature", "properties": {"norad_id": 40010, "name": "KAZEOSAT 2", "group": "resource", "lat": 53.241866723941925, "lon": -166.30148882360126, "alt_km": 609.7253894665018, "timestamp": "2025-12-26T07:29:18.116763+00:00", "meta": {"OBJECT_NAME": "KAZEOSAT 2", "OBJECT_ID": "2014-033A", "EPOCH": "2025-12-25T21:32:39.926112", "MEAN_MOTION": 14.85188666, "ECCENTRICITY": 0.00087556, "INCLINATION": 97.5496, "RA_OF_ASC_NODE": 203.5329, "ARG_OF_PERICENTER": 161.5853, "MEAN_ANOMALY": 198.5681, "EPHEMERIS_TYPE": 0, "CLASSIFICATION_TYPE": "U", "NORAD_CAT_ID": 40010, "ELEMENT_SET_NO": 999, "REV_AT_EPOCH": 62323, "BSTAR": 6.8821103e-05, "MEAN_MOTION_DOT": 5.4e-06, "MEAN_MOTION_DDOT": 0}, "tle": {"line1": "1 40010U 14033A   25359.89768433  .00000540  00000+0  68821-4 0  9995", "line2": "2 40010  97.5496 203.5329 0008755 161.5853 198.5681 14.85188666623232"}}, "geometry": {"type": "Point", "coordinates": [-166.30148882360126, 53.241866723941925]}}, {"type": "Feature", "properties": {"norad_id": 40011, "name": "HODOYOSHI-4", "group": "resource", "lat": -73.83309701809387, "lon": -18.663998065520524, "alt_km": 615.8737739668913, "timestamp": "2025-12-26T07:29:18.116774+00:00", "meta": {"OBJECT_NAME": "HODOYOSHI-4", "OBJECT_ID": "2014-033B", "EPOCH": "2025-12-25T23:53:11.874048", "MEAN_MOTION": 14.87529287, "ECCENTRICITY": 0.00242202, "INCLINATION": 97.5411, "RA_OF_ASC_NODE": 188.2259, "ARG_OF_PERICENTER": 156.6901, "MEAN_ANOMALY": 203.542, "EPHEMERIS_TYPE": 0, "CLASSIFICATION_TYPE": "U", "NORAD_CAT_ID": 40011, "ELEMENT_SET_NO": 999, "REV_AT_EPOCH": 62305, "BSTAR": 0.00029381102, "MEAN_MOTION_DOT": 2.628e-05, "MEAN_MOTION_DDOT": 0}, "tle": {"line1": "1 40011U 14033B   25359.99527632  .00002628  00000+0  29381-3 0  9997", "line2": "2 40011  97.5411 188.2259 0024220 156.6901 203.5420 14.87529287623053"}}, "geometry": {"type": "Point", "coordinates": [-18.663998065520524, -73.83309701809387]}}, {"type": "Feature", "properties": {"norad_id": 40013, "name": "DEIMOS-2", "group": "resource", "lat": -38.89851275513674, "lon": -118.14651876330689, "alt_km": 595.7971489333995, "timestamp": "2025-12-26T07:29:18.116784+00:00", "meta": {"OBJECT_NAME": "DEIMOS-2", "OBJECT_ID": "2014-033D", "EPOCH": "2025-12-25T22:00:47.971296", "MEAN_MOTION": 14.93029428, "ECCENTRICITY": 0.0001373, "INCLINATION": 97.605, "RA_OF_ASC_NODE": 235.2832, "ARG_OF_PERICENTER": 109.6024, "MEAN_ANOMALY": 250.5344, "EPHEMERIS_TYPE": 0, "CLASSIFICATION_TYPE": "U", "NORAD_CAT_ID": 40013, "ELEMENT_SET_NO": 999, "REV_AT_EPOCH": 61186, "BSTAR": 0.0003462556, "MEAN_MOTION_DOT": 3.548e-05, "MEAN_MOTION_DDOT": 0}, "tle": {"line1": "1 40013U 14033D   25359.91722189  .00003548  00000+0  34626-3 0  9995", "line2": "2 40013  97.6050 235.2832 0001373 109.6024 250.5344 14.93029428611865"}}, "geometry": {"type": "Point", "coordinates": [-118.14651876330689, -38.89851275513674]}}, {"type": "Feature", "properties": {"norad_id": 40015, "name": "HODOYOSHI-3", "group": "resource", "lat": 49.402463730220106, "lon": 156.56984198641538, "alt_km": 629.6701596518651, "timestamp": "2025-12-26T07:29:18.116794+00:00", "meta": {"OBJECT_NAME": "HODOYOSHI-3", "OBJECT_ID": "2014-033F", "EPOCH": "2025-12-25T23:10:33.237408", "MEAN_MOTION": 14.84850354, "ECCENTRICITY": 0.00325893, "INCLINATION": 97.6208, "RA_OF_ASC_NODE": 165.2264, "ARG_OF_PERICENTER": 203.0416, "MEAN_ANOMALY": 156.934, "EPHEMERIS_TYPE": 0, "CLASSIFICATION_TYPE": "U", "NORAD_CAT_ID": 40015, "ELEMENT_SET_NO": 999, "REV_AT_EPOCH": 62191, "BSTAR": 0.00018476572, "MEAN_MOTION_DOT": 1.532e-05, "MEAN_MOTION_DDOT": 0}, "tle": {"line1": "1 40015U 14033F   25359.96566247  .00001532  00000+0  18477-3 0  9990", "line2": "2 40015  97.6208 165.2264 0032589 203.0416 156.9340 14.84850354621912"}}, "geometry": {"type": "Point", "coordinates": [156.56984198641538, 49.402463730220106]}}, {"type": "Feature", "properties": {"norad_id": 40053, "name": "SPOT 7", "group": "resource", "lat": 37.738480798571715, "lon": 55.75428762985808, "alt_km": 687.1941198563081, "timestamp": "2025-12-26T07:29:18.116804+00:00", "meta": {"OBJECT_NAME": "SPOT 7", "OBJECT_ID": "2014-034A", "EPOCH": "2025-12-25T23:05:39.500736", "MEAN_MOTION": 14.60750059, "ECCENTRICITY": 0.00015245, "INCLINATION": 98.0884, "RA_OF_ASC_NODE": 61.7317, "ARG_OF_PERICENTER": 81.1746, "MEAN_ANOMALY": 278.9627, "EPHEMERIS_TYPE": 0, "CLASSIFICATION_TYPE": "U", "NORAD_CAT_ID": 40053, "ELEMENT_SET_NO": 999, "REV_AT_EPOCH": 61184, "BSTAR": 0.00013308867, "MEAN_MOTION_DOT": 6.04e-06, "MEAN_MOTION_DDOT": 0}, "tle": {"line1": "1 40053U 14034A   25359.96226274  .00000604  00000+0  13309-3 0  9994", "line2": "2 40053  98.0884  61.7317 0001524  81.1746 278.9627 14.60750059611843"}}, "geometry": {"type": "Point", "coordinates": [55.75428762985808, 37.738480798571715]}}, {"type": "Feature", "properties": {"norad_id": 40072, "name": "SKYSAT-B", "group": "resource", "lat": -11.955811834627278, "lon": 122.951155449817, "alt_km": 609.7114871541999, "timestamp": "2025-12-26T07:29:18.116814+00:00", "meta": {"OBJECT_NAME": "SKYSAT-B", "OBJECT_ID": "2014-037D", "EPOCH": "2025-12-25T19:19:36.203232", "MEAN_MOTION": 14.87373258, "ECCENTRICITY": 0.00068538, "INCLINATION": 98.3629, "RA_OF_ASC_NODE": 304.2026, "ARG_OF_PERICENTER": 113.9297, "MEAN_ANOMALY": 246.2636, "EPHEMERIS_TYPE": 0, "CLASSIFICATION_TYPE": "U", "NORAD_CAT_ID": 40072, "ELEMENT_SET_NO": 999, "REV_AT_EPOCH": 62018, "BSTAR": 0.00021241273, "MEAN_MOTION_DOT": 1.859e-05, "MEAN_MOTION_DDOT": 0}, "tle": {"line1": "1 40072U 14037D   25359.80528013  .00001859  00000+0  21241-3 0  9994", "line2": "2 40072  98.3629 304.2026 0006853 113.9297 246.2636 14.87373258620187"}}, "geometry": {"type": "Point", "coordinates": [122.951155449817, -11.955811834627278]}}, {"type": "Feature", "properties": {"norad_id": 40115, "name": "WORLDVIEW-3 (WV-3)", "group": "resource", "lat": -32.81673704802806, "lon": 77.54844664458842, "alt_km": 622.1195784746296, "timestamp": "2025-12-26T07:29:18.116824+00:00", "meta": {"OBJECT_NAME": "WORLDVIEW-3 (WV-3)", "OBJECT_ID": "2014-048A", "EPOCH": "2025-12-25T21:55:56.983872", "MEAN_MOTION": 14.84677094, "ECCENTRICITY": 0.0002074, "INCLINATION": 97.8763, "RA_OF_ASC_NODE": 72.0334, "ARG_OF_PERICENTER": 128.0983, "MEAN_ANOMALY": 232.0419, "EPHEMERIS_TYPE": 0, "CLASSIFICATION_TYPE": "U", "NORAD_CAT_ID": 40115, "ELEMENT_SET_NO": 999, "REV_AT_EPOCH": 61619, "BSTAR": 0.00013420469, "MEAN_MOTION_DOT": 1.082e-05, "MEAN_MOTION_DDOT": 0}, "tle": {"line1": "1 40115U 14048A   25359.91385398  .00001082  00000+0  13420-3 0  9991", "line2": "2 40115  97.8763  72.0334 0002074 128.0983 232.0419 14.84677094616190"}}, "geometry": {"type": "Point", "coordinates": [77.54844664458842, -32.81673704802806]}}]}